CCSDS_OMM_VERS = 2.0
CREATION_DATE  = 
ORIGINATOR     = 

OBJECT_NAME    = STARLINK-36119
OBJECT_ID      = 2026-020C
CENTER_NAME    = EARTH
REF_FRAME      = TEME
TIME_SYSTEM    = UTC
MEAN_ELEMENT_THEORY = SGP/SGP4

EPOCH          = 2026-02-20T21:20:18.926016
MEAN_MOTION    = 15.76565482
ECCENTRICITY   = .0003017
INCLINATION    = 43.0002
RA_OF_ASC_NODE = 244.3572
ARG_OF_PERICENTER = 276.4869
MEAN_ANOMALY   = 83.5657

EPHEMERIS_TYPE = 0
CLASSIFICATION_TYPE = U
NORAD_CAT_ID   = 67619
ELEMENT_SET_NO = 999
REV_AT_EPOCH   = 343
BSTAR          = .15244E-2
MEAN_MOTION_DOT = .257723E-2
MEAN_MOTION_DDOT = 0

CCSDS_OMM_VERS = 2.0
CREATION_DATE  = 
ORIGINATOR     = 

OBJECT_NAME    = STARLINK-36607
OBJECT_ID      = 2026-020D
CENTER_NAME    = EARTH
REF_FRAME      = TEME
TIME_SYSTEM    = UTC
MEAN_ELEMENT_THEORY = SGP/SGP4

EPOCH          = 2026-02-21T04:00:01.999584
MEAN_MOTION    = 15.76388382
ECCENTRICITY   = .0001582
INCLINATION    = 42.9995
RA_OF_ASC_NODE = 242.2374
ARG_OF_PERICENTER = 262.1018
MEAN_ANOMALY   = 49.3085

EPHEMERIS_TYPE = 0
CLASSIFICATION_TYPE = U
NORAD_CAT_ID   = 67620
ELEMENT_SET_NO = 999
REV_AT_EPOCH   = 473
BSTAR          = -.19972E-3
MEAN_MOTION_DOT = -.32916E-3
MEAN_MOTION_DDOT = 0

CCSDS_OMM_VERS = 2.0
CREATION_DATE  = 
ORIGINATOR     = 

OBJECT_NAME    = STARLINK-36615
OBJECT_ID      = 2026-020E
CENTER_NAME    = EARTH
REF_FRAME      = TEME
TIME_SYSTEM    = UTC
MEAN_ELEMENT_THEORY = SGP/SGP4

EPOCH          = 2026-02-20T21:55:43.856256
MEAN_MOTION    = 15.82231414
ECCENTRICITY   = .0002588
INCLINATION    = 42.9978
RA_OF_ASC_NODE = 243.6588
ARG_OF_PERICENTER = 277.8799
MEAN_ANOMALY   = 82.1779

EPHEMERIS_TYPE = 0
CLASSIFICATION_TYPE = U
NORAD_CAT_ID   = 67621
ELEMENT_SET_NO = 999
REV_AT_EPOCH   = 344
BSTAR          = .21428E-2
MEAN_MOTION_DOT = .481489E-2
MEAN_MOTION_DDOT = 0

CCSDS_OMM_VERS = 2.0
CREATION_DATE  = 
ORIGINATOR     = 

OBJECT_NAME    = STARLINK-36614
OBJECT_ID      = 2026-020F
CENTER_NAME    = EARTH
REF_FRAME      = TEME
TIME_SYSTEM    = UTC
MEAN_ELEMENT_THEORY = SGP/SGP4

EPOCH          = 2026-02-20T21:14:00.660768
MEAN_MOTION    = 15.76720822
ECCENTRICITY   = .0003414
INCLINATION    = 42.9983
RA_OF_ASC_NODE = 244.3231
ARG_OF_PERICENTER = 280.1958
MEAN_ANOMALY   = 79.8527

EPHEMERIS_TYPE = 0
CLASSIFICATION_TYPE = U
NORAD_CAT_ID   = 67622
ELEMENT_SET_NO = 999
REV_AT_EPOCH   = 343
BSTAR          = .26207E-2
MEAN_MOTION_DOT = .457218E-2
MEAN_MOTION_DDOT = 0

CCSDS_OMM_VERS = 2.0
CREATION_DATE  = 
ORIGINATOR     = 

OBJECT_NAME    = STARLINK-36600
OBJECT_ID      = 2026-020G
CENTER_NAME    = EARTH
REF_FRAME      = TEME
TIME_SYSTEM    = UTC
MEAN_ELEMENT_THEORY = SGP/SGP4

EPOCH          = 2026-02-19T22:28:35.308992
MEAN_MOTION    = 15.76434945
ECCENTRICITY   = .0001891
INCLINATION    = 42.9977
RA_OF_ASC_NODE = 250.1169
ARG_OF_PERICENTER = 269.3742
MEAN_ANOMALY   = 90.6911

EPHEMERIS_TYPE = 0
CLASSIFICATION_TYPE = U
NORAD_CAT_ID   = 67623
ELEMENT_SET_NO = 999
REV_AT_EPOCH   = 328
BSTAR          = .13513E-2
MEAN_MOTION_DOT = .226213E-2
MEAN_MOTION_DDOT = 0

CCSDS_OMM_VERS = 2.0
CREATION_DATE  = 
ORIGINATOR     = 

OBJECT_NAME    = STARLINK-36439
OBJECT_ID      = 2026-020H
CENTER_NAME    = EARTH
REF_FRAME      = TEME
TIME_SYSTEM    = UTC
MEAN_ELEMENT_THEORY = SGP/SGP4

EPOCH          = 2026-02-19T22:12:48.823776
MEAN_MOTION    = 15.76427943
ECCENTRICITY   = .0002554
INCLINATION    = 42.9974
RA_OF_ASC_NODE = 250.0282
ARG_OF_PERICENTER = 255.3824
MEAN_ANOMALY   = 104.6763

EPHEMERIS_TYPE = 0
CLASSIFICATION_TYPE = U
NORAD_CAT_ID   = 67624
ELEMENT_SET_NO = 999
REV_AT_EPOCH   = 328
BSTAR          = .56867E-3
MEAN_MOTION_DOT = .93404E-3
MEAN_MOTION_DDOT = 0

CCSDS_OMM_VERS = 2.0
CREATION_DATE  = 
ORIGINATOR     = 

OBJECT_NAME    = STARLINK-36438
OBJECT_ID      = 2026-020J
CENTER_NAME    = EARTH
REF_FRAME      = TEME
TIME_SYSTEM    = UTC
MEAN_ELEMENT_THEORY = SGP/SGP4

EPOCH          = 2026-02-20T21:10:51.500064
MEAN_MOTION    = 15.76685941
ECCENTRICITY   = .0003293
INCLINATION    = 42.9980
RA_OF_ASC_NODE = 244.3051
ARG_OF_PERICENTER = 271.0707
MEAN_ANOMALY   = 88.9785

EPHEMERIS_TYPE = 0
CLASSIFICATION_TYPE = U
NORAD_CAT_ID   = 67625
ELEMENT_SET_NO = 999
REV_AT_EPOCH   = 343
BSTAR          = .2356E-2
MEAN_MOTION_DOT = .407948E-2
MEAN_MOTION_DDOT = 0

CCSDS_OMM_VERS = 2.0
CREATION_DATE  = 
ORIGINATOR     = 

OBJECT_NAME    = STARLINK-36436
OBJECT_ID      = 2026-020K
CENTER_NAME    = EARTH
REF_FRAME      = TEME
TIME_SYSTEM    = UTC
MEAN_ELEMENT_THEORY = SGP/SGP4

EPOCH          = 2026-02-21T04:00:01.999584
MEAN_MOTION    = 15.76377989
ECCENTRICITY   = .0001768
INCLINATION    = 42.9993
RA_OF_ASC_NODE = 242.1745
ARG_OF_PERICENTER = 251.1728
MEAN_ANOMALY   = 85.1242

EPHEMERIS_TYPE = 0
CLASSIFICATION_TYPE = U
NORAD_CAT_ID   = 67626
ELEMENT_SET_NO = 999
REV_AT_EPOCH   = 473
BSTAR          = -.54838E-4
MEAN_MOTION_DOT = -.9412E-4
MEAN_MOTION_DDOT = 0

CCSDS_OMM_VERS = 2.0
CREATION_DATE  = 
ORIGINATOR     = 

OBJECT_NAME    = STARLINK-36502
OBJECT_ID      = 2026-020L
CENTER_NAME    = EARTH
REF_FRAME      = TEME
TIME_SYSTEM    = UTC
MEAN_ELEMENT_THEORY = SGP/SGP4

EPOCH          = 2026-02-20T21:50:09.553920
MEAN_MOTION    = 15.82390864
ECCENTRICITY   = .0003477
INCLINATION    = 42.9971
RA_OF_ASC_NODE = 243.6290
ARG_OF_PERICENTER = 304.7090
MEAN_ANOMALY   = 55.3454

EPHEMERIS_TYPE = 0
CLASSIFICATION_TYPE = U
NORAD_CAT_ID   = 67627
ELEMENT_SET_NO = 999
REV_AT_EPOCH   = 344
BSTAR          = .20999E-2
MEAN_MOTION_DOT = .475047E-2
MEAN_MOTION_DDOT = 0

CCSDS_OMM_VERS = 2.0
CREATION_DATE  = 
ORIGINATOR     = 

OBJECT_NAME    = STARLINK-36532
OBJECT_ID      = 2026-020M
CENTER_NAME    = EARTH
REF_FRAME      = TEME
TIME_SYSTEM    = UTC
MEAN_ELEMENT_THEORY = SGP/SGP4

EPOCH          = 2026-02-21T00:00:01.999296
MEAN_MOTION    = 15.82335971
ECCENTRICITY   = .0001754
INCLINATION    = 42.9990
RA_OF_ASC_NODE = 243.0484
ARG_OF_PERICENTER = 255.9501
MEAN_ANOMALY   = 269.5962

EPHEMERIS_TYPE = 0
CLASSIFICATION_TYPE = U
NORAD_CAT_ID   = 67628
ELEMENT_SET_NO = 999
REV_AT_EPOCH   = 470
BSTAR          = -.56007E-2
MEAN_MOTION_DOT = -.1059876E-1
MEAN_MOTION_DDOT = 0

CCSDS_OMM_VERS = 2.0
CREATION_DATE  = 
ORIGINATOR     = 

OBJECT_NAME    = STARLINK-36367
OBJECT_ID      = 2026-020N
CENTER_NAME    = EARTH
REF_FRAME      = TEME
TIME_SYSTEM    = UTC
MEAN_ELEMENT_THEORY = SGP/SGP4

EPOCH          = 2026-02-21T00:00:01.999296
MEAN_MOTION    = 15.76321875
ECCENTRICITY   = .0001676
INCLINATION    = 42.9990
RA_OF_ASC_NODE = 243.3452
ARG_OF_PERICENTER = 271.3266
MEAN_ANOMALY   = 135.8083

EPHEMERIS_TYPE = 0
CLASSIFICATION_TYPE = U
NORAD_CAT_ID   = 67629
ELEMENT_SET_NO = 999
REV_AT_EPOCH   = 470
BSTAR          = .44424E-3
MEAN_MOTION_DOT = .7233E-3
MEAN_MOTION_DDOT = 0

CCSDS_OMM_VERS = 2.0
CREATION_DATE  = 
ORIGINATOR     = 

OBJECT_NAME    = STARLINK-36416
OBJECT_ID      = 2026-020P
CENTER_NAME    = EARTH
REF_FRAME      = TEME
TIME_SYSTEM    = UTC
MEAN_ELEMENT_THEORY = SGP/SGP4

EPOCH          = 2026-02-20T22:38:56.512032
MEAN_MOTION    = 15.76402842
ECCENTRICITY   = .0001881
INCLINATION    = 42.9979
RA_OF_ASC_NODE = 243.9029
ARG_OF_PERICENTER = 266.3830
MEAN_ANOMALY   = 93.6824

EPHEMERIS_TYPE = 0
CLASSIFICATION_TYPE = U
NORAD_CAT_ID   = 67630
ELEMENT_SET_NO = 999
REV_AT_EPOCH   = 344
BSTAR          = .18603E-2
MEAN_MOTION_DOT = .314457E-2
MEAN_MOTION_DDOT = 0

