STARLINK-36119          
1 67619U 26020C   26051.88910794  .00257723  00000+0  15244-2 0  9992
2 67619  43.0002 244.3572 0003017 276.4869  83.5657 15.76565482  3433
STARLINK-36607          
1 67620U 26020D   26052.16668981 -.00032916  00000+0 -19972-3 0  9994
2 67620  42.9995 242.2374 0001582 262.1018  49.3085 15.76388382  4735
STARLINK-36615          
1 67621U 26020E   26051.91370204  .00481489  00000+0  21428-2 0  9994
2 67621  42.9978 243.6588 0002588 277.8799  82.1779 15.82231414  3447
STARLINK-36614          
1 67622U 26020F   26051.88472987  .00457218  00000+0  26207-2 0  9995
2 67622  42.9983 244.3231 0003414 280.1958  79.8527 15.76720822  3432
STARLINK-36600          
1 67623U 26020G   26050.93651978  .00226213  00000+0  13513-2 0  9995
2 67623  42.9977 250.1169 0001891 269.3742  90.6911 15.76434945  3287
STARLINK-36439          
1 67624U 26020H   26050.92556509  .00093404  00000+0  56867-3 0  9993
2 67624  42.9974 250.0282 0002554 255.3824 104.6763 15.76427943  3284
STARLINK-36438          
1 67625U 26020J   26051.88254051  .00407948  00000+0  23560-2 0  9992
2 67625  42.9980 244.3051 0003293 271.0707  88.9785 15.76685941  3437
STARLINK-36436          
1 67626U 26020K   26052.16668981 -.00009412  00000+0 -54838-4 0  9996
2 67626  42.9993 242.1745 0001768 251.1728  85.1242 15.76377989  4736
STARLINK-36502          
1 67627U 26020L   26051.90983280  .00475047  00000+0  20999-2 0  9998
2 67627  42.9971 243.6290 0003477 304.7090  55.3454 15.82390864  3445
STARLINK-36532          
1 67628U 26020M   26052.00002314 -.01059876  00000+0 -56007-2 0  9991
2 67628  42.9990 243.0484 0001754 255.9501 269.5962 15.82335971  4707
STARLINK-36367          
1 67629U 26020N   26052.00002314  .00072330  00000+0  44424-3 0  9990
2 67629  42.9990 243.3452 0001676 271.3266 135.8083 15.76321875  4709
STARLINK-36416          
1 67630U 26020P   26051.94370963  .00314457  00000+0  18603-2 0  9990
2 67630  42.9979 243.9029 0001881 266.3830  93.6824 15.76402842  3441
